[{"OBJECT_NAME":"KOSEN-1","OBJECT_ID":"2021-102H","EPOCH":"2026-03-09T22:29:54.100608","MEAN_MOTION":15.25323573,"ECCENTRICITY":0.00138659,"INCLINATION":97.3334,"RA_OF_ASC_NODE":113.0569,"ARG_OF_PERICENTER":191.9191,"MEAN_ANOMALY":168.1721,"EPHEMERIS_TYPE":0,"CLASSIFICATION_TYPE":"U","NORAD_CAT_ID":49402,"ELEMENT_SET_NO":999,"REV_AT_EPOCH":23888,"BSTAR":0.00040411561,"MEAN_MOTION_DOT":0.00010142,"MEAN_MOTION_DDOT":0},{"OBJECT_NAME":"STARLINK-32760","OBJECT_ID":"2025-006Q","EPOCH":"2026-03-09T23:15:50.262336","MEAN_MOTION":15.27584304,"ECCENTRICITY":7.151e-5,"INCLINATION":42.9966,"RA_OF_ASC_NODE":291.1356,"ARG_OF_PERICENTER":264.7707,"MEAN_ANOMALY":95.3063,"EPHEMERIS_TYPE":0,"CLASSIFICATION_TYPE":"U","NORAD_CAT_ID":62568,"ELEMENT_SET_NO":999,"REV_AT_EPOCH":6490,"BSTAR":0.0011122932,"MEAN_MOTION_DOT":0.00030476,"MEAN_MOTION_DDOT":0}]
